IRIDIUM 8 [+]           
1 24792U 97020A   16283.48864900  .00000089  00000-0  24856-4 0  9997
2 24792  86.3951  63.4924 0002046  95.8298 264.3131 14.34214336 17266
IRIDIUM 7 [+]           
1 24793U 97020B   16283.48230780  .00000133  00000-0  40486-4 0  9998
2 24793  86.3956  63.7642 0002050  93.9850 266.1580 14.34215209 17268
IRIDIUM 6 [+]           
1 24794U 97020C   16283.47585759  .00000124  00000-0  37088-4 0  9991
2 24794  86.3954  63.7033 0002118  93.9929 266.1508 14.34214166 17264
IRIDIUM 5 [+]           
1 24795U 97020D   16283.46971519  .00000154  00000-0  47866-4 0  9992
2 24795  86.3943  63.7233 0002042  91.5080 268.6350 14.34220193 17341
IRIDIUM 4 [-]           
1 24796U 97020E   16283.48285218  .00000193  00000-0  60640-4 0  9997
2 24796  86.3949  62.8173 0002105  94.4979 307.1539 14.35108503 17349
IRIDIUM 914 [-]         
1 24836U 97030A   16283.46708232  .00000157  00000-0  44796-4 0  9991
2 24836  86.3907  80.2602 0001888 138.5811 221.5531 14.38710084 12893
IRIDIUM 12 [+]          
1 24837U 97030B   16283.48853921 -.00000015  00000-0 -12492-4 0  9993
2 24837  86.3918  94.9116 0001892  85.7691 289.1194 14.34216326 11016
IRIDIUM 10 [+]          
1 24839U 97030D   16283.47838970 -.00000019  00000-0 -13681-4 0  9996
2 24839  86.3918  94.8970 0001894  87.0786 300.9669 14.34215117 11024
IRIDIUM 13 [+]          
1 24840U 97030E   16283.42219500 -.00000045  00000-0 -23295-4 0  9996
2 24840  86.3918  95.0554 0001782  83.3304 276.8095 14.34214852 11005
IRIDIUM 16 [-]          
1 24841U 97030F   16283.46586376  .00000163  00000-0  48554-4 0  9993
2 24841  86.3997  95.0336 0003710  56.7003 303.4549 14.36661410 11586
IRIDIUM 911 [-]         
1 24842U 97030G   16283.48732674  .00000208  00000-0  54066-4 0  9995
2 24842  86.4423  95.9578 0013818 195.5217 164.5563 14.44895155 16747
IRIDIUM 15 [+]          
1 24869U 97034A   16283.18454653 -.00000059  00000-0 -27998-4 0  9993
2 24869  86.3940 127.0629 0002236  81.3419 278.8030 14.34217807  7931
IRIDIUM 17 [-]          
1 24870U 97034B   16283.47715783  .00000151  00000-0  45316-4 0  9996
2 24870  86.3942 125.2553 0001696  33.9223 326.2081 14.35706899  8206
IRIDIUM 920 [-]         
1 24871U 97034C   16283.49305974  .00000173  00000-0  49083-4 0  9995
2 24871  86.3940 112.0324 0013874  86.1807 274.0977 14.39428518 10282
IRIDIUM 18 [+]          
1 24872U 97034D   16283.51436107  .00000027  00000-0  24334-5 0  9993
2 24872  86.3943 126.8818 0002151  85.4466 274.6975 14.34218095  7985
IRIDIUM 921 [-]         
1 24873U 97034E   16283.26168493  .00001838  00000-0  10858-3 0  9991
2 24873  86.3994 184.5176 0006330 202.7375 157.3583 15.10826008 50205
IRIDIUM 26 [-]          
1 24903U 97043A   16283.32297689  .00000148  00000-0  44772-4 0  9998
2 24903  86.4008 359.8432 0002351  91.1540 336.4442 14.35214315  1995
IRIDIUM 25 [+]          
1 24904U 97043B   16283.32313598  .00000222  00000-0  72322-4 0  9992
2 24904  86.4000   0.3237 0002363  94.5712 265.5754 14.34222998  1870
IRIDIUM 46 [+]          
1 24905U 97043C   16283.33582357  .00000223  00000-0  72670-4 0  9992
2 24905  86.4009   0.8495 0002254  95.3994 264.7459 14.34216997  1876
IRIDIUM 23 [+]          
1 24906U 97043D   16283.33774075  .00000230  00000-0  74940-4 0  9993
2 24906  86.4015   0.3280 0002405  98.1122 304.6573 14.34221665  1883
IRIDIUM 22 [+]          
1 24907U 97043E   16283.30410648  .00000232  00000-0  75786-4 0  9995
2 24907  86.4013   0.9713 0002310  96.8410 263.3048 14.34222922  1873
DUMMY MASS 1 [-]        
1 24925U 97048A   16282.79029672  .00000123  00000-0  11075-4 0  9995
2 24925  86.3383 159.3342 0006112 191.9730 168.1350 14.85100116 34279
DUMMY MASS 2 [-]        
1 24926U 97048B   16282.78957091  .00000114  00000-0  10117-4 0  9996
2 24926  86.3384 160.4080 0006591 202.5880 157.5055 14.84868511 34126
IRIDIUM 29 [-]          
1 24944U 97051A   16283.36376555  .00000109  00000-0  31628-4 0  9999
2 24944  86.3997  31.7977 0001920 100.5626 259.5787 14.34602658998461
IRIDIUM 32 [+]          
1 24945U 97051B   16283.40280808  .00000228  00000-0  74239-4 0  9997
2 24945  86.3996  31.9451 0002219  98.5807 261.5640 14.34218231998471
IRIDIUM 33 [-]          
1 24946U 97051C   16283.45568830  .00000137  00000-0  42495-4 0  9995
2 24946  86.3913  31.6808 0007352 356.1354   3.9783 14.33514583998112
IRIDIUM 28 [-]          
1 24948U 97051E   16283.39954701  .00000160  00000-0  48814-4 0  9993
2 24948  86.4003  31.1586 0002306  85.4023 274.7437 14.35506938998595
IRIDIUM 30 [+]          
1 24949U 97051F   16283.39643130 -.00000134  00000-0 -54944-4 0  9999
2 24949  86.4012  32.0420 0002243  80.9218 279.2231 14.34220629998455
IRIDIUM 31 [+]          
1 24950U 97051G   16283.32032896  .00000023  00000-0  10632-5 0  9997
2 24950  86.3996  32.0706 0002056  98.7777 261.3651 14.34220216998453
IRIDIUM 19 [+]          
1 24965U 97056A   16283.44426014  .00000080  00000-0  21518-4 0  9997
2 24965  86.3952  63.5208 0002052  95.0927 265.0503 14.34213006996612
IRIDIUM 35 [+]          
1 24966U 97056B   16283.45695621  .00000081  00000-0  21742-4 0  9991
2 24966  86.3951  63.5111 0002067  94.8303 265.3129 14.34214097996591
IRIDIUM 36 [-]          
1 24967U 97056C   16283.48324504  .00000162  00000-0  49456-4 0  9996
2 24967  86.3964  62.7548 0001974  92.8855 267.2567 14.35557795996893
IRIDIUM 37 [+]          
1 24968U 97056D   16283.43158466  .00000019  00000-0 -44108-6 0  9997
2 24968  86.3951  63.7011 0001974  92.0266 268.1156 14.34213284996596
IRIDIUM 34 [+]          
1 24969U 97056E   16283.45061483  .00000073  00000-0  19091-4 0  9992
2 24969  86.3954  63.6296 0002017  94.5521 265.5906 14.34215592996592
IRIDIUM 43 [+]          
1 25039U 97069A   16283.50801011 -.00000123  00000-0 -51017-4 0  9992
2 25039  86.3940 126.8140 0001791  80.7339 279.4059 14.34219112990384
IRIDIUM 41 [+]          
1 25040U 97069B   16283.50168873 -.00000013  00000-0 -11754-4 0  9998
2 25040  86.3945 126.7712 0002119  81.1462 278.9974 14.34221952990387
IRIDIUM 40 [+]          
1 25041U 97069C   16283.10855742 -.00000143  00000-0 -58107-4 0  9990
2 25041  86.3939 127.1616 0000912  76.0677 284.0620 14.34216661990342
IRIDIUM 39 [B]          
1 25042U 97069D   16283.11763504  .00000200  00000-0  50042-4 0  9998
2 25042  86.3902 126.3509 0020978  69.9364 290.4094 14.46092442990431
IRIDIUM 38 [-]          
1 25043U 97069E   16283.50628298  .00000157  00000-0  47445-4 0  9996
2 25043  86.3940 124.2558 0002904  65.5878 294.5622 14.35979538990751
IRIDIUM 42 [-]          
1 25077U 97077A   16283.49449727  .00000091  00000-0  25108-4 0  9997
2 25077  86.3945 126.7664 0002165  84.3542 275.7901 14.34505676986252
IRIDIUM 44 [-]          
1 25078U 97077B   16283.51682972  .00000151  00000-0  43454-4 0  9993
2 25078  86.3931 116.9497 0002973  56.0608 304.0872 14.38065626987602
IRIDIUM 45 [+]          
1 25104U 97082A   16283.45356998  .00000237  00000-0  77589-4 0  9999
2 25104  86.3994  32.0534 0003006  77.7786 282.3746 14.34219761984439
IRIDIUM 24 [-]          
1 25105U 97082B   16283.29953654  .00000154  00000-0  42781-4 0  9998
2 25105  86.3955 341.4187 0013901  91.6554 268.6238 14.39808473986750
IRIDIUM 47 [+]          
1 25106U 97082C   16283.34216138  .00000030  00000-0  35715-5 0  9997
2 25106  86.4000   0.1952 0002371  97.9713 262.1752 14.34215603984410
IRIDIUM 49 [+]          
1 25108U 97082E   16283.36489025  .00000232  00000-0  75601-4 0  9999
2 25108  86.4002   0.2817 0002355  96.4305 315.5166 14.34222421984427
IRIDIUM 52 [+]          
1 25169U 98010A   16283.45392243 -.00000017  00000-0 -13171-4 0  9990
2 25169  86.3923  95.2107 0001894  85.5443 274.5969 14.34216129975849
IRIDIUM 56 [+]          
1 25170U 98010B   16283.44751676 -.00000111  00000-0 -46724-4 0  9995
2 25170  86.3913  95.3125 0002202  84.2202 275.9245 14.34213642975821
IRIDIUM 54 [+]          
1 25171U 98010C   16283.47930299 -.00000013  00000-0 -11730-4 0  9999
2 25171  86.3922  95.2197 0001886  85.9039 274.2373 14.34216157975999
IRIDIUM 50 [+]          
1 25172U 98010D   16283.44125951 -.00000015  00000-0 -12476-4 0  9998
2 25172  86.3923  95.1932 0001868  89.0000 271.1410 14.34215392975820
IRIDIUM 53 [+]          
1 25173U 98010E   16283.46028441 -.00000006  00000-0 -92087-5 0  9994
2 25173  86.3922  95.1909 0001883  85.9462 274.1949 14.34215707975839
IRIDIUM 51 [S]          
1 25262U 98018A   16283.47598240  .00000214  00000-0  69401-4 0  9993
2 25262  86.3952  63.7990 0002140  98.5585 261.5854 14.34212454975229
IRIDIUM 61 [+]          
1 25263U 98018B   16283.43791213  .00000018  00000-0 -65914-6 0  9995
2 25263  86.3952  63.6641 0002004  91.4843 268.6583 14.34212920970927
IRIDIUM 55 [+]          
1 25272U 98019A   16283.37105079  .00000224  00000-0  72825-4 0  9993
2 25272  86.3995  31.8682 0002219  97.6528 262.4920 14.34220907970114
IRIDIUM 57 [-]          
1 25273U 98019B   16283.41433600  .00000112  00000-0  33078-4 0  9996
2 25273  86.4001  32.1467 0002095  95.9569 264.1865 14.34238094970121
IRIDIUM 58 [+]          
1 25274U 98019C   16283.42178236  .00000222  00000-0  72190-4 0  9999
2 25274  86.4001  32.3335 0002275  98.0024 262.1429 14.34221720970120
IRIDIUM 59 [+]          
1 25275U 98019D   16283.42814426  .00000221  00000-0  71986-4 0  9999
2 25275  86.3996  32.1976 0002161 100.0868 260.0572 14.34221256970126
IRIDIUM 60 [+]          
1 25276U 98019E   16283.36470898  .00000211  00000-0  68400-4 0  9990
2 25276  86.3993  31.8535 0002206  97.1106 263.0341 14.34221298970114
IRIDIUM 62 [+]          
1 25285U 98021A   16283.18653210  .00000010  00000-0 -36174-5 0  9996
2 25285  86.3963 328.8540 0002379  95.7101 264.4366 14.34220462969040
IRIDIUM 63 [-]          
1 25286U 98021B   16283.49794133  .00000123  00000-0  36528-4 0  9997
2 25286  86.3994 329.1174 0002142  99.1067  34.7994 14.34616799969103
